#dP2023 10 30  0  0  0.00000000      96 __u+U IGS20 FIT  IAC
## 2286  86400.00000000   900.00000000 60247 0.0000000000000
+  119   C06C07C08C09C10C11C12C13C14C16C19C20C21C22C23C24C25
+        C26C27C28C29C30C32C33C34C35C36C37C38C39C40C41C42C43
+        C44C45C46E02E03E04E05E07E08E09E10E11E12E13E14E15E19
+        E21E24E25E26E27E30E31E33E34E36G01G02G03G04G05G06G07
+        G08G09G10G11G12G13G14G15G16G17G18G19G20G21G22G23G24
+        G25G26G27G28G29G30G31G32J02J03J04R01R02R03R04R05R07
+        R08R09R11R12R13R14R15R16R17R18R19R20R21R22R24R25R26
++         9  7  8  9  8  6  7  9  7  9  6  8  6  6  8  6  6
++         5  6  7  8  6  6  6  6  5  8  8  9  9  8  7  6  6
++         8  8  7  6  5  5  6  6  6  6  6  7  6  4  9  5  6
++         5  6  6  6  6  6  5  6  6  6  7  6  8  5  6  7  6
++         6  6  5  6  6  6  5  6  6  6  5  6  6  6  6  6  6
++         6  7  6  6  6  5  6  6  6  6  7  7  4  6  5  7  6
++         8  6  6  6  6  6  7  7  7  6  5  8  6  7  4  5  7
%c M  cc GPS ccc cccc cccc cccc cccc ccccc ccccc ccccc ccccc
%c cc cc ccc ccc cccc cccc cccc cccc ccccc ccccc ccccc ccccc
%f  0.0000000  0.000000000  0.00000000000  0.000000000000000
%f  0.0000000  0.000000000  0.00000000000  0.000000000000000
%i    0    0    0    0      0      0      0      0         0
%i    0    0    0    0      0      0      0      0         0
/* INFORMATION & ANALYSIS CENTER (IAC)      ULTRA-RAPID DATA
/* S/V CLOCKS ARE ALIGNED TO GNSS TIME                      
/* G:C1WC2W R:C1PC2P E:C1XC5X C:C2IC6I J:C1CC2S             
/* PCV:IGS20_2280 OL/AL:FES2004  NONE     YN ORB:CoN CLK:CoN
*  2023 10 30  9  0  0.00000000
PC06 -11775.135790  23879.880565  32658.960418     76.794971
PC07 -13717.925233  39971.280506  -1109.223917   -238.504206
PC08   1185.228011  30460.995899 -29036.687077    269.088301
PC09  -2270.489202  24612.097975  34564.612197    -23.746903
PC10  -7389.972227  40935.514980  -8160.030627      1.074279
PC11  22543.936200   4298.092867 -15782.807141    230.048790
PC12   4874.646289  14644.533074 -23202.439215    877.869836
PC13   6187.065862  33703.679488 -24220.368317    375.248329
PC14  13586.416058   9711.036993  22371.108314    684.894127
PC16 -16935.707012  22549.655540  31491.272678   -150.468810
PC19 -16040.913615   1349.382650 -22781.921538   -974.035855
PC20  -9795.401677 -17534.958680 -19361.842960    160.500219
PC21  -3010.540382  27484.352389   3853.815686   -969.069653
PC22 -13464.583357  20524.501931 -13303.023288   -245.649609
PC23  14435.480661  -8648.213569 -22258.009136   -832.527917
PC24  18665.624991  20351.707392   3895.609480    545.718394
PC25  23355.120940   6991.928667 -13570.283724    244.233445
PC26   4375.345800  20762.542359  18089.589275   -198.982066
PC27   4654.664345 -17220.576038  21446.114809    220.810589
PC28  20984.804627 -14774.431091  10961.026870    166.386520
PC29 -26434.466847   3498.328095   8236.355026    194.571919
PC30 -14850.954065 -10412.531716  21200.209639     -7.400356
PC32   2877.622481 -27503.360033  -3717.120621   -531.979347
PC33  16044.347544  -1281.948442  22789.998304   -948.872236
PC34  16234.675910   9544.926736 -20604.935823    292.280305
PC35 -20297.370620  15626.813759 -11041.349562    514.111295
PC36 -23332.323901  -8287.415142  12904.478116   -156.779571
PC37  -3230.784632 -20644.319455 -18501.601024   -869.391927
PC38  -6476.686163  26346.949919 -32195.600184    114.441099
PC39 -21149.057484  22369.062736  28745.597167     -5.451878
PC40 -20358.399062  37076.785607   1092.484550    -42.045071
PC41  13708.476409 -19943.058879  13937.304720   -871.701265
PC42   9036.501819  18886.482921  18494.028202   -510.153808
PC43  26275.722349  -2760.475699  -9015.062180     46.128088
PC44  -4123.920889  17546.028565 -21306.660774    277.281734
PC45 -13951.159476   8990.449526  22434.043426    -41.191740
PC46 -19326.532486 -19968.152727  -2805.690583    -95.806729
PE02  12192.125040 -14583.190499 -22696.373298     74.205956
PE03  21957.244096 -19643.290835   2806.769041    -69.467122
PE04  -8716.377153  23974.728915  15010.962464   -245.905533
PE05  22417.490342  -3946.100510  18918.690237     32.435259
PE07  -9386.489043 -14512.466021 -24032.082793    -85.080406
PE08   9217.239873 -24000.190139 -14670.675736   -169.217949
PE09   9158.366536  14524.313733  24105.673142   -209.596932
PE10  10538.803548  17085.807809 -21749.036878   -575.017864
PE11  20715.591836  15171.325479 -14734.187103   3153.208669
PE12   -218.444152  16391.738280 -24645.209580   -756.689300
PE13 -20149.496758 -15327.461064  15347.097466    -19.614678
PE14  20864.350746 -12396.821310  -5613.187303 999999.999999
PE15    739.394094 -16218.145301  24760.056078    -65.347789
PE19 -22862.205432  18066.550137  -5191.122513  -1319.522690
PE21 -17933.215763  -6337.580634  22683.828738   -561.444806
PE24  13219.783568  24899.372961  -8995.933225   -403.739074
PE25  17945.479088   6747.796208 -22542.705343     -3.776136
PE26 -28954.132816  -5048.662938  -3558.052119    266.150219
PE27 -13534.512480 -24571.841812   9469.105380   -187.259544
PE30   -836.150694 -28035.931837  -9491.070759   -621.058876
PE31   1198.747924  28112.390782   9188.941915     -8.976029
PE33 -21386.118132   7215.857989 -19152.622300      1.308523
PE34  20865.897192  -7646.846066  19543.922886    -75.172766
PE36  28942.360418   5480.849181   2910.441268   -136.996892
PG01  18216.863578  14423.623014 -13517.771419    163.312380
PG02  13417.691084  14514.497783 -17328.474254   -535.566829
PG03  12147.420695  21828.020757   9031.811860    -47.259496
PG04  10432.888043  11010.050888  21809.503726    198.821945
PG05  -5198.851077 -25615.932949   4248.343186   -148.452198
PG06  17438.179286  -7814.698303  18558.587852    518.739739
PG07  26115.066510   5735.597856  -1645.977815     26.815703
PG08   2359.732318  17719.756993 -19589.817353   -149.667171
PG09  18035.943065    872.425258  19409.332013    -17.794622
PG10 -12651.466457   8423.015933 -21554.198031    -59.372747
PG11   5042.491161 -14246.300855  21860.135514   -438.002052
PG12  -9665.183916 -23682.658780   7019.242865   -441.486776
PG13   8449.804391 -19822.980906 -15583.345834    589.722196
PG14  14807.340320  -4604.160507 -21535.888019    228.770543
PG15  -5703.034302 -17116.148978 -19915.599059     92.127037
PG16  -1720.176882  24671.673588   8726.719281   -430.747552
PG17  22075.294586 -12001.384261  -8356.403622    723.604805
PG18 -25948.134051  -4372.075404  -4269.009534   -464.260323
PG19  20743.479051 -16275.200394   -666.461639    391.955561
PG20   2068.771305 -21619.451428  15458.708187    404.214231
PG21  10533.895481  15180.371946 -18895.624227    145.558183
PG22  11812.226902 -12517.766163 -19857.296867     93.327788
PG23 -16104.820574  -5536.370463 -20421.452329     90.649701
PG24 -14642.289178 -15101.100490 -16850.523071   -358.970586
PG25 -15912.803184 -13549.721909  16223.249095    475.112113
PG26  -6756.565644  18909.815476  17076.638417    220.026428
PG27  -9968.763989  21606.419995 -11606.502558    -62.710119
PG28 -18978.981893   7736.157779  16871.021671    -35.392028
PG29 -17653.683041  -2422.759078  19686.364644   -610.216817
PG30  23904.546178  -2323.006482 -11505.382825   -473.512341
PG31 -11068.942371  12111.684856  20764.721032   -225.213113
PG32 -20575.412953  15631.382098  -5464.276372   -579.454081
PJ02 -26245.655531  26100.303376  25163.674830     -6.640795
PJ03 -32884.776436  16866.093562 -15634.521635     -6.589740
PJ04 -21479.445066  32709.658479 -10721.430425     71.722613
PR01  12377.174673  -2995.637611  22095.265528     68.728241
PR02  13363.411138 -18888.594746  10857.425077    -22.360248
PR03   6377.517865 -23859.699677  -6476.053344     88.053699
PR04  -3588.751450 -15501.070219 -19922.447423    208.963164
PR05 -11812.558322   1073.807910 -22573.718073    121.433786
PR07  -5849.430453  23670.400553   7428.933165     68.000063
PR08   3977.224727  15291.503311  20063.856222    -73.127440
PR09  -8607.979102   7359.862978  22874.435286    150.443932
PR11  15226.041845  20391.940430   1866.883907   -209.673036
PR12  17311.835710   9433.962702 -16151.519312     32.901740
PR13  10041.880572  -5068.530054 -22907.388218    -40.731843
PR14  -4943.764473 -18890.188197 -16391.475568     25.492163
PR15 -15635.459937 -20147.816100   -400.298126     85.018589
PR16 -17357.322112  -9605.917794  16024.145451     20.153294
PR17   4723.155086 -10995.883562  22533.488186     30.325208
PR18 -12936.073325  -7763.587827  20575.819908    109.418755
PR19 -23606.873208  -2056.355579   9463.319407   -252.764445
PR20 -21713.610749   7026.712812 -11346.104696   -102.653196
PR21  -4061.072243  10854.701216 -22720.709750    -49.472367
PR22  13740.276131   8156.151448 -19854.868311     91.104683
PR24  21025.517623  -8313.437220  11810.020706    -30.191699
PR25  -5241.645988  11075.052975 -22366.787442     -6.467317
PR26   3695.866826  15769.164545  19726.788263    -18.770689
EOF
